OBJECT_NAME,OBJECT_ID,EPOCH,MEAN_MOTION,ECCENTRICITY,INCLINATION,RA_OF_ASC_NODE,ARG_OF_PERICENTER,MEAN_ANOMALY,EPHEMERIS_TYPE,CLASSIFICATION_TYPE,NORAD_CAT_ID,ELEMENT_SET_NO,REV_AT_EPOCH,BSTAR,MEAN_MOTION_DOT,MEAN_MOTION_DDOT
STARLINK-4579,2022-105AF,2026-06-13T06:08:34.200960,15.05647081,.00027577,97.3655,44.5638,69.0358,291.1164,0,U,53677,999,20768,.34578567E-4,.441E-5,0
STARLINK-4632,2022-105AH,2026-06-13T05:20:41.402688,15.05680989,.00029563,97.3687,44.6078,68.6809,291.4734,0,U,53679,999,20768,.17462627E-3,.2465E-4,0
STARLINK-4630,2022-105AJ,2026-06-13T06:04:35.013792,15.05668413,.00031656,97.3660,44.5423,61.4904,298.6642,0,U,53680,999,20768,-.80271293E-4,-.1216E-4,0
STARLINK-4424,2022-105AK,2026-06-13T08:00:01.999872,15.58386593,.00018268,97.6035,47.7638,93.4558,177.2234,0,U,53681,999,589,.57209893E-2,.459613E-2,0
STARLINK-4438,2022-105AL,2026-06-13T04:56:46.067136,15.05666007,.00029905,97.3662,44.4517,97.8627,262.2939,0,U,53682,999,20767,.10049588E-4,.88E-6,0
STARLINK-4625,2022-105AM,2026-06-13T06:02:38.010048,15.05656687,.00027004,97.3658,43.4810,71.7654,288.3867,0,U,53683,999,20761,-.71977528E-4,-.1096E-4,0
STARLINK-4624,2022-105AN,2026-06-13T06:06:36.708192,15.05659755,.00021749,97.3649,43.4354,74.2041,285.9427,0,U,53684,999,20758,-.12047599E-3,-.1796E-4,0
STARLINK-4626,2022-105AP,2026-06-13T05:26:44.170368,15.05650746,.00026982,97.3675,43.3554,71.8114,288.3407,0,U,53685,999,20760,.53937382E-4,.721E-5,0
STARLINK-4467,2022-105AQ,2026-06-13T05:14:46.217472,15.05661815,.00016809,97.3751,43.3635,79.9989,280.1428,0,U,53686,999,20760,.3458969E-3,.4938E-4,0
STARLINK-4569,2022-105AR,2026-06-13T04:52:47.996256,15.05649137,.0002689,97.3666,44.4504,91.7479,268.4056,0,U,53687,999,20767,.7061393E-5,.44E-6,0
STARLINK-4571,2022-105AS,2026-06-13T04:50:51.830592,15.05655955,.00020309,97.3666,43.3727,95.1915,264.9544,0,U,53688,999,20760,-.58832957E-4,-.906E-5,0
STARLINK-4570,2022-105AU,2026-06-13T06:10:36.144192,15.05653734,.00018392,97.3656,43.4448,88.7216,271.4222,0,U,53690,999,20761,-.41158736E-4,-.651E-5,0
STARLINK-4560,2022-105AV,2026-06-13T05:52:36.831936,15.05648558,.00023152,97.3679,44.5297,80.5055,279.6434,0,U,53691,999,20768,.23975466E-4,.288E-5,0
STARLINK-4572,2022-105AW,2026-06-13T05:22:45.424704,15.26606148,.00019246,97.6091,52.5852,97.0163,263.1294,0,U,53692,999,20810,.1559915E-2,.40959E-3,0
STARLINK-4566,2022-105AX,2026-06-13T04:48:49.265280,15.05654885,.0002004,97.3679,44.5799,110.8842,249.2600,0,U,53693,999,20768,-.80804744E-4,-.1223E-4,0
YAOGAN-33 02,2022-106A,2026-06-13T06:51:43.753248,14.58724299,.00025085,98.1814,172.2072,136.9847,223.1549,0,U,53698,999,20115,.38568639E-4,.134E-5,0
STARLINK-4725,2022-107A,2026-06-13T07:17:56.155488,15.08835051,.00014159,53.1609,174.4439,89.2615,270.8539,0,U,53700,999,20929,.1006711E-4,-.128E-5,0
STARLINK-4711,2022-107B,2026-06-13T07:12:37.533024,15.08837347,.00012365,53.1600,174.4222,85.2091,274.9042,0,U,53701,999,20929,.6413243E-4,.733E-5,0
STARLINK-4724,2022-107C,2026-06-13T06:13:43.795488,15.08846942,.00011551,53.1606,159.9203,91.1062,269.0061,0,U,53702,999,20952,.5913232E-4,.653E-5,0
STARLINK-4731,2022-107D,2026-06-13T07:33:51.323040,15.08832255,.00012985,53.1603,174.5126,79.2756,280.8381,0,U,53703,999,20929,-.5218613E-5,-.371E-5,0
STARLINK-4714,2022-107E,2026-06-13T07:07:26.643360,15.08837966,.00013074,53.1602,175.1067,86.2370,273.8771,0,U,53704,999,20912,.66641524E-4,.773E-5,0
STARLINK-4717,2022-107F,2026-06-13T07:02:08.634336,15.08835400,.00012767,53.1595,175.0837,82.4107,277.7029,0,U,53705,999,20928,.75631722E-4,.916E-5,0
STARLINK-4716,2022-107G,2026-06-13T06:40:55.190784,15.08833099,.00012193,53.1584,174.9947,81.1714,278.9415,0,U,53706,999,20928,.49642405E-4,.502E-5,0
STARLINK-4667,2022-107H,2026-06-13T06:29:38.991552,15.08831097,.00012265,53.1606,159.9827,84.0007,276.1124,0,U,53707,999,20949,-.5781167E-5,-.38E-5,0
STARLINK-4694,2022-107J,2026-06-13T06:08:24.601056,15.08841544,.00012923,53.1592,159.9058,88.4981,271.6158,0,U,53708,999,20949,.43729795E-4,.408E-5,0
STARLINK-4685,2022-107K,2026-06-13T07:25:15.157344,15.08838937,.00013486,53.1604,179.4891,69.7898,290.3238,0,U,53709,999,20891,.67026681E-4,.779E-5,0
STARLINK-4627,2022-107M,2026-06-13T07:41:09.060864,15.08834372,.00012256,53.1604,179.5492,87.3278,272.7854,0,U,53711,999,20891,-.10443601E-4,-.454E-5,0
STARLINK-4683,2022-107N,2026-06-13T05:28:37.807968,15.08832756,.00012635,53.1592,179.7051,83.6456,276.4680,0,U,53712,999,20892,.43382993E-4,.402E-5,0
STARLINK-4686,2022-107R,2026-06-13T05:57:08.635968,15.08834164,.00008488,53.1593,184.7869,73.5196,286.5889,0,U,53715,999,20884,.76341046E-4,.927E-5,0
STARLINK-4699,2022-107S,2026-06-13T07:27:15.387264,15.08810041,.00013075,53.1589,184.4659,85.7825,274.3316,0,U,53716,999,20884,-.13964641E-3,-.2508E-4,0
