STARLINK-4579           
1 53677U 22105AF  26164.25595140  .00000441  00000+0  34579-4 0  9998
2 53677  97.3655  44.5638 0002757  69.0358 291.1164 15.05647081207681
STARLINK-4632           
1 53679U 22105AH  26164.22270142  .00002465  00000+0  17463-3 0  9999
2 53679  97.3687  44.6078 0002956  68.6809 291.4734 15.05680989207684
STARLINK-4630           
1 53680U 22105AJ  26164.25318303 -.00001216  00000+0 -80271-4 0  9999
2 53680  97.3660  44.5423 0003165  61.4904 298.6642 15.05668413207685
STARLINK-4424           
1 53681U 22105AK  26164.33335648  .00459613  00000+0  57210-2 0  9991
2 53681  97.6035  47.7638 0001826  93.4558 177.2234 15.58386593  5892
STARLINK-4438           
1 53682U 22105AL  26164.20608874  .00000088  00000+0  10050-4 0  9993
2 53682  97.3662  44.4517 0002990  97.8627 262.2939 15.05666007207674
STARLINK-4625           
1 53683U 22105AM  26164.25182882 -.00001096  00000+0 -71978-4 0  9993
2 53683  97.3658  43.4810 0002700  71.7654 288.3867 15.05656687207611
STARLINK-4624           
1 53684U 22105AN  26164.25459153 -.00001796  00000+0 -12048-3 0  9991
2 53684  97.3649  43.4354 0002174  74.2041 285.9427 15.05659755207588
STARLINK-4626           
1 53685U 22105AP  26164.22690012  .00000721  00000+0  53937-4 0  9998
2 53685  97.3675  43.3554 0002698  71.8114 288.3407 15.05650746207603
STARLINK-4467           
1 53686U 22105AQ  26164.21859048  .00004938  00000+0  34590-3 0  9991
2 53686  97.3751  43.3635 0001680  79.9989 280.1428 15.05661815207600
STARLINK-4569           
1 53687U 22105AR  26164.20333329  .00000044  00000+0  70614-5 0  9993
2 53687  97.3666  44.4504 0002689  91.7479 268.4056 15.05649137207675
STARLINK-4571           
1 53688U 22105AS  26164.20198878 -.00000906  00000+0 -58833-4 0  9999
2 53688  97.3666  43.3727 0002030  95.1915 264.9544 15.05655955207605
STARLINK-4570           
1 53690U 22105AU  26164.25736278 -.00000651  00000+0 -41159-4 0  9999
2 53690  97.3656  43.4448 0001839  88.7216 271.4222 15.05653734207616
STARLINK-4560           
1 53691U 22105AV  26164.24487074  .00000288  00000+0  23975-4 0  9996
2 53691  97.3679  44.5297 0002315  80.5055 279.6434 15.05648558207687
STARLINK-4572           
1 53692U 22105AW  26164.22413686  .00040959  00000+0  15599-2 0  9993
2 53692  97.6091  52.5852 0001924  97.0163 263.1294 15.26606148208105
STARLINK-4566           
1 53693U 22105AX  26164.20057020 -.00001223  00000+0 -80805-4 0  9995
2 53693  97.3679  44.5799 0002004 110.8842 249.2600 15.05654885207680
YAOGAN-33 02            
1 53698U 22106A   26164.28592307  .00000134  00000+0  38569-4 0  9999
2 53698  98.1814 172.2072 0002508 136.9847 223.1549 14.58724299201154
STARLINK-4725           
1 53700U 22107A   26164.30412217 -.00000128  00000+0  10067-4 0  9995
2 53700  53.1609 174.4439 0001415  89.2615 270.8539 15.08835051209297
STARLINK-4711           
1 53701U 22107B   26164.30043441  .00000733  00000+0  64132-4 0  9998
2 53701  53.1600 174.4222 0001236  85.2091 274.9042 15.08837347209298
STARLINK-4724           
1 53702U 22107C   26164.25953467  .00000653  00000+0  59132-4 0  9996
2 53702  53.1606 159.9203 0001155  91.1062 269.0061 15.08846942209529
STARLINK-4731           
1 53703U 22107D   26164.31517735 -.00000371  00000+0 -52186-5 0  9990
2 53703  53.1603 174.5126 0001298  79.2756 280.8381 15.08832255209291
STARLINK-4714           
1 53704U 22107E   26164.29683615  .00000773  00000+0  66642-4 0  9994
2 53704  53.1602 175.1067 0001307  86.2370 273.8771 15.08837966209124
STARLINK-4717           
1 53705U 22107F   26164.29315549  .00000916  00000+0  75632-4 0  9991
2 53705  53.1595 175.0837 0001276  82.4107 277.7029 15.08835400209288
STARLINK-4716           
1 53706U 22107G   26164.27841656  .00000502  00000+0  49642-4 0  9996
2 53706  53.1584 174.9947 0001219  81.1714 278.9415 15.08833099209288
STARLINK-4667           
1 53707U 22107H   26164.27059018 -.00000380  00000+0 -57812-5 0  9995
2 53707  53.1606 159.9827 0001226  84.0007 276.1124 15.08831097209495
STARLINK-4694           
1 53708U 22107J   26164.25584029  .00000408  00000+0  43730-4 0  9991
2 53708  53.1592 159.9058 0001292  88.4981 271.6158 15.08841544209493
STARLINK-4685           
1 53709U 22107K   26164.30920321  .00000779  00000+0  67027-4 0  9993
2 53709  53.1604 179.4891 0001348  69.7898 290.3238 15.08838937208916
STARLINK-4627           
1 53711U 22107M   26164.32024376 -.00000454  00000+0 -10444-4 0  9996
2 53711  53.1604 179.5492 0001225  87.3278 272.7854 15.08834372208916
STARLINK-4683           
1 53712U 22107N   26164.22821537  .00000402  00000+0  43383-4 0  9999
2 53712  53.1592 179.7051 0001263  83.6456 276.4680 15.08832756208928
STARLINK-4686           
1 53715U 22107R   26164.24801662  .00000927  00000+0  76341-4 0  9993
2 53715  53.1593 184.7869 0000848  73.5196 286.5889 15.08834164208841
STARLINK-4699           
1 53716U 22107S   26164.31059476 -.00002508  00000+0 -13965-3 0  9991
2 53716  53.1589 184.4659 0001307  85.7825 274.3316 15.08810041208844
